QIANFAN-69              
1 62799U 25016Q   26063.83454633  .00000101  00000+0  13770-3 0  9992
2 62799  88.9667  94.4550 0017946 106.6503 253.6620 13.51005358 58361
QIANFAN-70              
1 62800U 25016R   26063.85095954  .00000059  00000+0  72530-4 0  9996
2 62800  88.9688  94.6092 0017572  98.1653 262.1492 13.50997052 58324
QIANFAN-71              
1 62801U 25016S   26063.84678848  .00000059  00000+0  72414-4 0  9996
2 62801  88.9682  94.5841 0017832 109.7674 250.5402 13.50996557 58322
QIANFAN-72              
1 62802U 25016T   26063.78919272  .00000058  00000+0  70957-4 0  9998
2 62802  88.9672  94.5955 0021026 116.6799 243.6508 13.50996257 58308
QIANFAN-73              
1 63159U 25046A   26063.81604954  .00000181  00000+0  26179-3 0  9992
2 63159  88.9761 311.5467 0013149 245.6193 114.3586 13.50998138 58491
QIANFAN-74              
1 63160U 25046B   26063.79965027  .00000201  00000+0  29331-3 0  9998
2 63160  88.9761 311.4372 0001897  77.9929 282.1435 13.50997942 58553
QIANFAN-75              
1 63161U 25046C   26063.86085037  .00000229  00000+0  33570-3 0  9991
2 63161  88.9764 311.6656 0014320 249.2748 110.6869 13.51001865 58436
QIANFAN-76              
1 63162U 25046D   26063.85718493  .00000234  00000+0  34453-3 0  9997
2 63162  88.9762 311.6460 0011870 249.9050 110.0824 13.51014302 58444
QIANFAN-77              
1 63163U 25046E   26063.82060417  .00000459  00000+0  32398-3 0  9996
2 63163  88.9758 308.9824 0014391 176.9648 183.1618 13.96174071 59909
QIANFAN-78              
1 63164U 25046F   26063.82428323  .00000227  00000+0  33361-3 0  9995
2 63164  88.9761 311.5126 0013199 252.7471 107.2236 13.50998369 58514
QIANFAN-79              
1 63165U 25046G   26063.77916872  .00000210  00000+0  30672-3 0  9995
2 63165  88.9766 311.6280 0013053 251.0883 108.8853 13.51008437 58454
QIANFAN-80              
1 63166U 25046H   26063.79545992  .00000191  00000+0  27705-3 0  9990
2 63166  88.9762 311.3310 0011883 255.8175 104.1656 13.50997980 58614
QIANFAN-81              
1 63167U 25046J   26063.84766829  .00000207  00000+0  30275-3 0  9995
2 63167  88.9762 311.3934 0012960 243.2236 116.7589 13.50984028 58571
QIANFAN-82              
1 63168U 25046K   26063.80784692  .00000201  00000+0  29313-3 0  9995
2 63168  88.9762 311.4416 0011017 251.3462 108.6494 13.50999440 58558
QIANFAN-83              
1 63169U 25046L   26063.76007607  .00000268  00000+0  33221-3 0  9991
2 63169  88.9762 311.0617 0012438 229.2139 130.7940 13.62020555 58761
QIANFAN-84              
1 63170U 25046M   26063.76158663 -.00000083  00000+0 -14777-3 0  9994
2 63170  88.9760 311.5784 0014030 247.7462 112.2201 13.50961159 58479
QIANFAN-85              
1 63171U 25046N   26063.75845346  .00000192  00000+0  27927-3 0  9995
2 63171  88.9762 311.4506 0011426 250.2346 109.7573 13.51002083 58543
