[{"OBJECT_NAME":"QIANFAN-69","OBJECT_ID":"2025-016Q","EPOCH":"2026-03-04T20:01:44.802912","MEAN_MOTION":13.51005358,"ECCENTRICITY":0.0017946,"INCLINATION":88.9667,"RA_OF_ASC_NODE":94.455,"ARG_OF_PERICENTER":106.6503,"MEAN_ANOMALY":253.662,"EPHEMERIS_TYPE":0,"CLASSIFICATION_TYPE":"U","NORAD_CAT_ID":62799,"ELEMENT_SET_NO":999,"REV_AT_EPOCH":5836,"BSTAR":0.0001377,"MEAN_MOTION_DOT":1.01e-6,"MEAN_MOTION_DDOT":0},{"OBJECT_NAME":"QIANFAN-70","OBJECT_ID":"2025-016R","EPOCH":"2026-03-04T20:25:22.904256","MEAN_MOTION":13.50997052,"ECCENTRICITY":0.0017572,"INCLINATION":88.9688,"RA_OF_ASC_NODE":94.6092,"ARG_OF_PERICENTER":98.1653,"MEAN_ANOMALY":262.1492,"EPHEMERIS_TYPE":0,"CLASSIFICATION_TYPE":"U","NORAD_CAT_ID":62800,"ELEMENT_SET_NO":999,"REV_AT_EPOCH":5832,"BSTAR":7.253e-5,"MEAN_MOTION_DOT":5.9e-7,"MEAN_MOTION_DDOT":0},{"OBJECT_NAME":"QIANFAN-71","OBJECT_ID":"2025-016S","EPOCH":"2026-03-04T20:19:22.524672","MEAN_MOTION":13.50996557,"ECCENTRICITY":0.0017832,"INCLINATION":88.9682,"RA_OF_ASC_NODE":94.5841,"ARG_OF_PERICENTER":109.7674,"MEAN_ANOMALY":250.5402,"EPHEMERIS_TYPE":0,"CLASSIFICATION_TYPE":"U","NORAD_CAT_ID":62801,"ELEMENT_SET_NO":999,"REV_AT_EPOCH":5832,"BSTAR":7.2414e-5,"MEAN_MOTION_DOT":5.9e-7,"MEAN_MOTION_DDOT":0},{"OBJECT_NAME":"QIANFAN-72","OBJECT_ID":"2025-016T","EPOCH":"2026-03-04T18:56:26.251008","MEAN_MOTION":13.50996257,"ECCENTRICITY":0.0021026,"INCLINATION":88.9672,"RA_OF_ASC_NODE":94.5955,"ARG_OF_PERICENTER":116.6799,"MEAN_ANOMALY":243.6508,"EPHEMERIS_TYPE":0,"CLASSIFICATION_TYPE":"U","NORAD_CAT_ID":62802,"ELEMENT_SET_NO":999,"REV_AT_EPOCH":5830,"BSTAR":7.0957e-5,"MEAN_MOTION_DOT":5.8e-7,"MEAN_MOTION_DDOT":0},{"OBJECT_NAME":"QIANFAN-73","OBJECT_ID":"2025-046A","EPOCH":"2026-03-04T19:35:06.680256","MEAN_MOTION":13.50998138,"ECCENTRICITY":0.0013149,"INCLINATION":88.9761,"RA_OF_ASC_NODE":311.5467,"ARG_OF_PERICENTER":245.6193,"MEAN_ANOMALY":114.3586,"EPHEMERIS_TYPE":0,"CLASSIFICATION_TYPE":"U","NORAD_CAT_ID":63159,"ELEMENT_SET_NO":999,"REV_AT_EPOCH":5849,"BSTAR":0.00026179,"MEAN_MOTION_DOT":1.81e-6,"MEAN_MOTION_DDOT":0},{"OBJECT_NAME":"QIANFAN-74","OBJECT_ID":"2025-046B","EPOCH":"2026-03-04T19:11:29.783328","MEAN_MOTION":13.50997942,"ECCENTRICITY":0.0001897,"INCLINATION":88.9761,"RA_OF_ASC_NODE":311.4372,"ARG_OF_PERICENTER":77.9929,"MEAN_ANOMALY":282.1435,"EPHEMERIS_TYPE":0,"CLASSIFICATION_TYPE":"U","NORAD_CAT_ID":63160,"ELEMENT_SET_NO":999,"REV_AT_EPOCH":5855,"BSTAR":0.00029331,"MEAN_MOTION_DOT":2.01e-6,"MEAN_MOTION_DDOT":0},{"OBJECT_NAME":"QIANFAN-75","OBJECT_ID":"2025-046C","EPOCH":"2026-03-04T20:39:37.471968","MEAN_MOTION":13.51001865,"ECCENTRICITY":0.001432,"INCLINATION":88.9764,"RA_OF_ASC_NODE":311.6656,"ARG_OF_PERICENTER":249.2748,"MEAN_ANOMALY":110.6869,"EPHEMERIS_TYPE":0,"CLASSIFICATION_TYPE":"U","NORAD_CAT_ID":63161,"ELEMENT_SET_NO":999,"REV_AT_EPOCH":5843,"BSTAR":0.0003357,"MEAN_MOTION_DOT":2.29e-6,"MEAN_MOTION_DDOT":0},{"OBJECT_NAME":"QIANFAN-76","OBJECT_ID":"2025-046D","EPOCH":"2026-03-04T20:34:20.777952","MEAN_MOTION":13.51014302,"ECCENTRICITY":0.001187,"INCLINATION":88.9762,"RA_OF_ASC_NODE":311.646,"ARG_OF_PERICENTER":249.905,"MEAN_ANOMALY":110.0824,"EPHEMERIS_TYPE":0,"CLASSIFICATION_TYPE":"U","NORAD_CAT_ID":63162,"ELEMENT_SET_NO":999,"REV_AT_EPOCH":5844,"BSTAR":0.00034453,"MEAN_MOTION_DOT":2.34e-6,"MEAN_MOTION_DDOT":0},{"OBJECT_NAME":"QIANFAN-77","OBJECT_ID":"2025-046E","EPOCH":"2026-03-04T19:41:40.200288","MEAN_MOTION":13.96174071,"ECCENTRICITY":0.0014391,"INCLINATION":88.9758,"RA_OF_ASC_NODE":308.9824,"ARG_OF_PERICENTER":176.9648,"MEAN_ANOMALY":183.1618,"EPHEMERIS_TYPE":0,"CLASSIFICATION_TYPE":"U","NORAD_CAT_ID":63163,"ELEMENT_SET_NO":999,"REV_AT_EPOCH":5990,"BSTAR":0.00032398,"MEAN_MOTION_DOT":4.59e-6,"MEAN_MOTION_DDOT":0},{"OBJECT_NAME":"QIANFAN-78","OBJECT_ID":"2025-046F","EPOCH":"2026-03-04T19:46:58.071072","MEAN_MOTION":13.50998369,"ECCENTRICITY":0.0013199,"INCLINATION":88.9761,"RA_OF_ASC_NODE":311.5126,"ARG_OF_PERICENTER":252.7471,"MEAN_ANOMALY":107.2236,"EPHEMERIS_TYPE":0,"CLASSIFICATION_TYPE":"U","NORAD_CAT_ID":63164,"ELEMENT_SET_NO":999,"REV_AT_EPOCH":5851,"BSTAR":0.00033361,"MEAN_MOTION_DOT":2.27e-6,"MEAN_MOTION_DDOT":0},{"OBJECT_NAME":"QIANFAN-79","OBJECT_ID":"2025-046G","EPOCH":"2026-03-04T18:42:00.177408","MEAN_MOTION":13.51008437,"ECCENTRICITY":0.0013053,"INCLINATION":88.9766,"RA_OF_ASC_NODE":311.628,"ARG_OF_PERICENTER":251.0883,"MEAN_ANOMALY":108.8853,"EPHEMERIS_TYPE":0,"CLASSIFICATION_TYPE":"U","NORAD_CAT_ID":63165,"ELEMENT_SET_NO":999,"REV_AT_EPOCH":5845,"BSTAR":0.00030672,"MEAN_MOTION_DOT":2.1e-6,"MEAN_MOTION_DDOT":0},{"OBJECT_NAME":"QIANFAN-80","OBJECT_ID":"2025-046H","EPOCH":"2026-03-04T19:05:27.737088","MEAN_MOTION":13.5099798,"ECCENTRICITY":0.0011883,"INCLINATION":88.9762,"RA_OF_ASC_NODE":311.331,"ARG_OF_PERICENTER":255.8175,"MEAN_ANOMALY":104.1656,"EPHEMERIS_TYPE":0,"CLASSIFICATION_TYPE":"U","NORAD_CAT_ID":63166,"ELEMENT_SET_NO":999,"REV_AT_EPOCH":5861,"BSTAR":0.00027705,"MEAN_MOTION_DOT":1.91e-6,"MEAN_MOTION_DDOT":0},{"OBJECT_NAME":"QIANFAN-81","OBJECT_ID":"2025-046J","EPOCH":"2026-03-04T20:20:38.540256","MEAN_MOTION":13.50984028,"ECCENTRICITY":0.001296,"INCLINATION":88.9762,"RA_OF_ASC_NODE":311.3934,"ARG_OF_PERICENTER":243.2236,"MEAN_ANOMALY":116.7589,"EPHEMERIS_TYPE":0,"CLASSIFICATION_TYPE":"U","NORAD_CAT_ID":63167,"ELEMENT_SET_NO":999,"REV_AT_EPOCH":5857,"BSTAR":0.00030275,"MEAN_MOTION_DOT":2.07e-6,"MEAN_MOTION_DDOT":0},{"OBJECT_NAME":"QIANFAN-82","OBJECT_ID":"2025-046K","EPOCH":"2026-03-04T19:23:17.973888","MEAN_MOTION":13.5099944,"ECCENTRICITY":0.0011017,"INCLINATION":88.9762,"RA_OF_ASC_NODE":311.4416,"ARG_OF_PERICENTER":251.3462,"MEAN_ANOMALY":108.6494,"EPHEMERIS_TYPE":0,"CLASSIFICATION_TYPE":"U","NORAD_CAT_ID":63168,"ELEMENT_SET_NO":999,"REV_AT_EPOCH":5855,"BSTAR":0.00029313,"MEAN_MOTION_DOT":2.01e-6,"MEAN_MOTION_DDOT":0},{"OBJECT_NAME":"QIANFAN-83","OBJECT_ID":"2025-046L","EPOCH":"2026-03-04T18:14:30.572448","MEAN_MOTION":13.62020555,"ECCENTRICITY":0.0012438,"INCLINATION":88.9762,"RA_OF_ASC_NODE":311.0617,"ARG_OF_PERICENTER":229.2139,"MEAN_ANOMALY":130.794,"EPHEMERIS_TYPE":0,"CLASSIFICATION_TYPE":"U","NORAD_CAT_ID":63169,"ELEMENT_SET_NO":999,"REV_AT_EPOCH":5876,"BSTAR":0.00033221,"MEAN_MOTION_DOT":2.68e-6,"MEAN_MOTION_DDOT":0},{"OBJECT_NAME":"QIANFAN-84","OBJECT_ID":"2025-046M","EPOCH":"2026-03-04T18:16:41.084832","MEAN_MOTION":13.50961159,"ECCENTRICITY":0.001403,"INCLINATION":88.976,"RA_OF_ASC_NODE":311.5784,"ARG_OF_PERICENTER":247.7462,"MEAN_ANOMALY":112.2201,"EPHEMERIS_TYPE":0,"CLASSIFICATION_TYPE":"U","NORAD_CAT_ID":63170,"ELEMENT_SET_NO":999,"REV_AT_EPOCH":5847,"BSTAR":-0.00014777,"MEAN_MOTION_DOT":-8.3e-7,"MEAN_MOTION_DDOT":0},{"OBJECT_NAME":"QIANFAN-85","OBJECT_ID":"2025-046N","EPOCH":"2026-03-04T18:12:10.378944","MEAN_MOTION":13.51002083,"ECCENTRICITY":0.0011426,"INCLINATION":88.9762,"RA_OF_ASC_NODE":311.4506,"ARG_OF_PERICENTER":250.2346,"MEAN_ANOMALY":109.7573,"EPHEMERIS_TYPE":0,"CLASSIFICATION_TYPE":"U","NORAD_CAT_ID":63171,"ELEMENT_SET_NO":999,"REV_AT_EPOCH":5854,"BSTAR":0.00027927,"MEAN_MOTION_DOT":1.92e-6,"MEAN_MOTION_DDOT":0}]
